ONEWEB-0275             
1 48993U 21060AC  26168.60941918  .00000111  00000+0  25782-3 0  9992
2 48993  87.9098 228.6918 0001932  96.3819 263.7532 13.16594464239615
ONEWEB-0276             
1 48994U 21060AD  26168.71865866  .00000020  00000+0  19257-4 0  9992
2 48994  87.9097 228.6695 0001983  93.1438 266.9920 13.16594764239647
ONEWEB-0277             
1 48995U 21060AE  26168.65533760 -.00000055  00000+0 -17662-3 0  9998
2 48995  87.9090 228.6910 0001918 101.4576 258.6770 13.16593998239622
ONEWEB-0278             
1 48996U 21060AF  26168.72181039 -.00000059  00000+0 -18741-3 0  9998
2 48996  87.9098 228.6677 0002274  98.9123 261.2265 13.16592906239767
ONEWEB-0279             
1 48997U 21060AG  26168.65374678 -.00000074  00000+0 -22635-3 0  9998
2 48997  87.9096 228.6797 0001785  97.6965 262.4369 13.16594919239680
ONEWEB-0280             
1 48998U 21060AH  26168.66878303  .00000018  00000+0  13465-4 0  9992
2 48998  87.9095 228.6810 0002155 107.3127 252.8239 13.16593525239622
ONEWEB-0281             
1 48999U 21060AJ  26168.59833209  .00000037  00000+0  62565-4 0  9997
2 48999  87.9098 228.6902 0002104  98.2247 261.9122 13.16594823239683
ONEWEB-0282             
1 49000U 21060AK  26168.62840058  .00000037  00000+0  63902-4 0  9991
2 49000  87.9097 228.6925 0001983 101.3468 258.7886 13.16592605239661
ONEWEB-0283             
1 49001U 21060AL  26168.61732894  .00000115  00000+0  26848-3 0  9993
2 49001  87.9095 228.6942 0001865  97.6126 262.5217 13.16594260239677
ONEWEB-0284             
1 49002U 21060AM  26168.61100117  .00000071  00000+0  15191-3 0  9991
2 49002  87.9096 228.6887 0002236 104.7985 255.3394 13.16594620239657
ONEWEB-0285             
1 49075U 21075A   26168.51768481 -.00000140  00000+0 -42585-3 0  9996
2 49075  87.8948 350.5960 0001762  92.4899 267.6431 13.12442670235252
ONEWEB-0286             
1 49076U 21075B   26168.49976623  .00000381  00000+0  10228-2 0  9996
2 49076  87.8938 350.6164 0001977  86.7685 273.3669 13.12442833234602
ONEWEB-0287             
1 49077U 21075C   26168.54633241 -.00000043  00000+0 -14272-3 0  9990
2 49077  87.9134   5.7944 0002243  85.0543 275.0845 13.17649257233673
ONEWEB-0288             
1 49078U 21075D   26168.55241830  .00000025  00000+0  35109-4 0  9992
2 49078  87.8947 350.5826 0002064  92.0356 268.1009 13.12444547235235
ONEWEB-0289             
1 49079U 21075E   26168.50906955  .00000005  00000+0 -21557-4 0  9995
2 49079  87.9137   5.8187 0001882 100.5578 259.5766 13.17649804234248
ONEWEB-0290             
1 49080U 21075F   26168.55815308  .00000017  00000+0  97167-5 0  9996
2 49080  87.9142   5.7807 0001836 104.6942 255.4393 13.17648954233664
ONEWEB-0291             
1 49081U 21075G   26168.54296439  .00000019  00000+0  16857-4 0  9992
2 49081  87.9137   5.7914 0002178  92.9943 267.1437 13.17649013233653
ONEWEB-0293             
1 49082U 21075H   26168.49233211 -.00000016  00000+0 -75340-4 0  9997
2 49082  87.9132   5.8046 0001897  92.6895 267.4453 13.17648651233676
ONEWEB-0294             
1 49083U 21075J   26168.48295934  .00000237  00000+0  62470-3 0  9999
2 49083  87.8948 350.6001 0001833 101.3786 258.7548 13.12444816234615
ONEWEB-0295             
1 49084U 21075K   26168.49149229 -.00000027  00000+0 -10378-3 0  9995
2 49084  87.9130   5.8088 0002187  89.2217 270.9166 13.17648565233635
ONEWEB-0296             
1 49085U 21075L   26168.53885860 -.00000403  00000+0 -11559-2 0  9998
2 49085  87.8952 350.5963 0002158  93.4672 266.6703 13.12443646234626
ONEWEB-0297             
1 49086U 21075M   26168.49312377  .00000441  00000+0  11908-2 0  9990
2 49086  87.8936 350.6163 0001945  90.3404 269.7948 13.12444378235229
ONEWEB-0298             
1 49087U 21075N   26168.49584946  .00000015  00000+0  57750-5 0  9999
2 49087  87.9132   5.8061 0001914  84.3650 275.7700 13.17647886233660
ONEWEB-0299             
1 49088U 21075P   26168.49739915  .00000007  00000+0 -14798-4 0  9994
2 49088  87.9142   5.7860 0002046  86.4611 273.6754 13.17650274233644
ONEWEB-0300             
1 49089U 21075Q   26168.48549242  .00000317  00000+0  84447-3 0  9996
2 49089  87.8948 350.5972 0001807  78.2214 281.9117 13.12445311235247
ONEWEB-0301             
1 49090U 21075R   26168.54563044 -.00000352  00000+0 -10129-2 0  9997
2 49090  87.8947 350.5835 0001688  80.5453 279.5866 13.12443990234619
ONEWEB-0302             
1 49091U 21075S   26168.53208425 -.00000357  00000+0 -10271-2 0  9999
2 49091  87.8950 350.5978 0001959  99.6493 260.4857 13.12443776234596
ONEWEB-0304             
1 49092U 21075T   26168.54802100  .00000057  00000+0  11380-3 0  9999
2 49092  87.9133   5.7983 0002010  87.9770 272.1592 13.17649385233621
ONEWEB-0305             
1 49093U 21075U   26168.54127330 -.00000003  00000+0 -40948-4 0  9991
2 49093  87.9141   5.7841 0002242  85.9349 274.2039 13.17649241233654
ONEWEB-0308             
1 49094U 21075V   26168.52530635 -.00000334  00000+0 -96377-3 0  9999
2 49094  87.8949 350.5912 0001788  90.9664 269.1670 13.12442938234609
