OBJECT_NAME,OBJECT_ID,EPOCH,MEAN_MOTION,ECCENTRICITY,INCLINATION,RA_OF_ASC_NODE,ARG_OF_PERICENTER,MEAN_ANOMALY,EPHEMERIS_TYPE,CLASSIFICATION_TYPE,NORAD_CAT_ID,ELEMENT_SET_NO,REV_AT_EPOCH,BSTAR,MEAN_MOTION_DOT,MEAN_MOTION_DDOT
ONEWEB-0275,2021-060AC,2026-06-17T14:37:33.817152,13.16594464,.0001932,87.9098,228.6918,96.3819,263.7532,0,U,48993,999,23961,.25782E-3,.111E-5,0
ONEWEB-0276,2021-060AD,2026-06-17T17:14:52.108224,13.16594764,.0001983,87.9097,228.6695,93.1438,266.9920,0,U,48994,999,23964,.19257E-4,.2E-6,0
ONEWEB-0277,2021-060AE,2026-06-17T15:43:41.168640,13.16593998,.0001918,87.9090,228.6910,101.4576,258.6770,0,U,48995,999,23962,-.17662E-3,-.55E-6,0
ONEWEB-0278,2021-060AF,2026-06-17T17:19:24.417696,13.16592906,.0002274,87.9098,228.6677,98.9123,261.2265,0,U,48996,999,23976,-.18741E-3,-.59E-6,0
ONEWEB-0279,2021-060AG,2026-06-17T15:41:23.721792,13.16594919,.0001785,87.9096,228.6797,97.6965,262.4369,0,U,48997,999,23968,-.22635E-3,-.74E-6,0
ONEWEB-0280,2021-060AH,2026-06-17T16:03:02.853792,13.16593525,.0002155,87.9095,228.6810,107.3127,252.8239,0,U,48998,999,23962,.13465E-4,.18E-6,0
ONEWEB-0281,2021-060AJ,2026-06-17T14:21:35.892576,13.16594823,.0002104,87.9098,228.6902,98.2247,261.9122,0,U,48999,999,23968,.62565E-4,.37E-6,0
ONEWEB-0282,2021-060AK,2026-06-17T15:04:53.810112,13.16592605,.0001983,87.9097,228.6925,101.3468,258.7886,0,U,49000,999,23966,.63902E-4,.37E-6,0
ONEWEB-0283,2021-060AL,2026-06-17T14:48:57.220416,13.16594260,.0001865,87.9095,228.6942,97.6126,262.5217,0,U,49001,999,23967,.26848E-3,.115E-5,0
ONEWEB-0284,2021-060AM,2026-06-17T14:39:50.501088,13.16594620,.0002236,87.9096,228.6887,104.7985,255.3394,0,U,49002,999,23965,.15191E-3,.71E-6,0
ONEWEB-0285,2021-075A,2026-06-17T12:25:27.967584,13.12442670,.00017622,87.8948,350.5960,92.4899,267.6431,0,U,49075,999,23525,-.42585068E-3,-.14E-5,0
ONEWEB-0286,2021-075B,2026-06-17T11:59:39.802272,13.12442833,.00019775,87.8938,350.6164,86.7685,273.3669,0,U,49076,999,23460,.10227787E-2,.381E-5,0
ONEWEB-0287,2021-075C,2026-06-17T13:06:43.120224,13.17649257,.0002243,87.9134,5.7944,85.0543,275.0845,0,U,49077,999,23367,-.14272E-3,-.43E-6,0
ONEWEB-0288,2021-075D,2026-06-17T13:15:28.941120,13.12444547,.0002064,87.8947,350.5826,92.0356,268.1009,0,U,49078,999,23523,.35109E-4,.25E-6,0
ONEWEB-0289,2021-075E,2026-06-17T12:13:03.609120,13.17649804,.00018823,87.9137,5.8187,100.5578,259.5766,0,U,49079,999,23424,-.21557057E-4,.5E-7,0
ONEWEB-0290,2021-075F,2026-06-17T13:23:44.426112,13.17648954,.0001836,87.9142,5.7807,104.6942,255.4393,0,U,49080,999,23366,.97167E-5,.17E-6,0
ONEWEB-0291,2021-075G,2026-06-17T13:01:52.123296,13.17649013,.0002178,87.9137,5.7914,92.9943,267.1437,0,U,49081,999,23365,.16857E-4,.19E-6,0
ONEWEB-0293,2021-075H,2026-06-17T11:48:57.494304,13.17648651,.00018972,87.9132,5.8046,92.6895,267.4453,0,U,49082,999,23367,-.75340344E-4,-.16E-6,0
ONEWEB-0294,2021-075J,2026-06-17T11:35:27.686976,13.12444816,.00018332,87.8948,350.6001,101.3786,258.7548,0,U,49083,999,23461,.62470335E-3,.237E-5,0
ONEWEB-0295,2021-075K,2026-06-17T11:47:44.933856,13.17648565,.00021876,87.9130,5.8088,89.2217,270.9166,0,U,49084,999,23363,-.10377744E-3,-.27E-6,0
ONEWEB-0296,2021-075L,2026-06-17T12:55:57.383040,13.12443646,.0002158,87.8952,350.5963,93.4672,266.6703,0,U,49085,999,23462,-.11559E-2,-.403E-5,0
ONEWEB-0297,2021-075M,2026-06-17T11:50:05.893728,13.12444378,.0001945,87.8936,350.6163,90.3404,269.7948,0,U,49086,999,23522,.1190776E-2,.441E-5,0
ONEWEB-0298,2021-075N,2026-06-17T11:54:01.393344,13.17647886,.0001914,87.9132,5.8061,84.3650,275.7700,0,U,49087,999,23366,.577497E-5,.15E-6,0
ONEWEB-0299,2021-075P,2026-06-17T11:56:15.286560,13.17650274,.0002046,87.9142,5.7860,86.4611,273.6754,0,U,49088,999,23364,-.14797607E-4,.7E-7,0
ONEWEB-0300,2021-075Q,2026-06-17T11:39:06.545088,13.12445311,.00018078,87.8948,350.5972,78.2214,281.9117,0,U,49089,999,23524,.84446632E-3,.317E-5,0
ONEWEB-0301,2021-075R,2026-06-17T13:05:42.470016,13.12443990,.0001688,87.8947,350.5835,80.5453,279.5866,0,U,49090,999,23461,-.10129E-2,-.352E-5,0
ONEWEB-0302,2021-075S,2026-06-17T12:46:12.079200,13.12443776,.0001959,87.8950,350.5978,99.6493,260.4857,0,U,49091,999,23459,-.10271E-2,-.357E-5,0
ONEWEB-0304,2021-075T,2026-06-17T13:09:09.014400,13.17649385,.000201,87.9133,5.7983,87.9770,272.1592,0,U,49092,999,23362,.1138E-3,.57E-6,0
ONEWEB-0305,2021-075U,2026-06-17T12:59:26.013120,13.17649241,.0002242,87.9141,5.7841,85.9349,274.2039,0,U,49093,999,23365,-.40948E-4,-.3E-7,0
ONEWEB-0308,2021-075V,2026-06-17T12:36:26.468640,13.12442938,.00017889,87.8949,350.5912,90.9664,269.1670,0,U,49094,999,23460,-.96376704E-3,-.334E-5,0
